{
  "type": "FeatureCollection",
  "features": [
    {
      "type": "Feature",
      "properties": {
        "norad_id": 41890,
        "name": "CYGFM07",
        "group": "weather",
        "lat": -1.3720083199728288,
        "lon": -38.69640651819825,
        "alt_km": 412.06825513410695,
        "timestamp": "2025-12-21T14:40:47.553224+00:00",
        "meta_object_name": "CYGFM07",
        "meta_object_id": "2016-078G",
        "meta_epoch": "2025-12-21T06:57:46.804320",
        "meta_mean_motion": 15.50339451,
        "meta_eccentricity": 0.00099937,
        "meta_inclination": 34.9486,
        "meta_ra_of_asc_node": 325.3781,
        "meta_arg_of_pericenter": 288.0026,
        "meta_mean_anomaly": 71.9607,
        "meta_ephemeris_type": 0,
        "meta_classification_type": "U",
        "meta_norad_cat_id": 41890,
        "meta_element_set_no": 999,
        "meta_rev_at_epoch": 50128,
        "meta_bstar": 0.00032616541,
        "meta_mean_motion_dot": 0.0001912,
        "meta_mean_motion_ddot": 0,
        "tle_line1": "1 41890U 16078G   25355.29012505  .00019120  00000+0  32617-3 0  9992",
        "tle_line2": "2 41890  34.9486 325.3781 0009993 288.0026  71.9607 15.50339451501285"
      },
      "geometry": {
        "type": "Point",
        "coordinates": [
          -38.69640651819825,
          -1.3720083199728288
        ]
      }
    },
    {
      "type": "Feature",
      "properties": {
        "norad_id": 41891,
        "name": "CYGFM03",
        "group": "weather",
        "lat": -5.12612617814051,
        "lon": 152.57455823119744,
        "alt_km": 415.4976860853858,
        "timestamp": "2025-12-21T14:40:47.553234+00:00",
        "meta_object_name": "CYGFM03",
        "meta_object_id": "2016-078H",
        "meta_epoch": "2025-12-21T06:08:26.024064",
        "meta_mean_motion": 15.50233466,
        "meta_eccentricity": 0.00096589,
        "meta_inclination": 34.9438,
        "meta_ra_of_asc_node": 327.5268,
        "meta_arg_of_pericenter": 275.2832,
        "meta_mean_anomaly": 84.6788,
        "meta_ephemeris_type": 0,
        "meta_classification_type": "U",
        "meta_norad_cat_id": 41891,
        "meta_element_set_no": 999,
        "meta_rev_at_epoch": 50125,
        "meta_bstar": 0.00032410602,
        "meta_mean_motion_dot": 0.00018925,
        "meta_mean_motion_ddot": 0,
        "tle_line1": "1 41891U 16078H   25355.25585676  .00018925  00000+0  32411-3 0  9997",
        "tle_line2": "2 41891  34.9438 327.5268 0009658 275.2832  84.6788 15.50233466501255"
      },
      "geometry": {
        "type": "Point",
        "coordinates": [
          152.57455823119744,
          -5.12612617814051
        ]
      }
    },
    {
      "type": "Feature",
      "properties": {
        "norad_id": 43010,
        "name": "FENGYUN 3D",
        "group": "weather",
        "lat": -34.145523434292045,
        "lon": -31.781947093722923,
        "alt_km": 833.5247260179858,
        "timestamp": "2025-12-21T14:40:47.553245+00:00",
        "meta_object_name": "FENGYUN 3D",
        "meta_object_id": "2017-072A",
        "meta_epoch": "2025-12-21T06:23:07.473408",
        "meta_mean_motion": 14.19686636,
        "meta_eccentricity": 0.00013625,
        "meta_inclination": 98.9898,
        "meta_ra_of_asc_node": 321.704,
        "meta_arg_of_pericenter": 155.6682,
        "meta_mean_anomaly": 204.4558,
        "meta_ephemeris_type": 0,
        "meta_classification_type": "U",
        "meta_norad_cat_id": 43010,
        "meta_element_set_no": 999,
        "meta_rev_at_epoch": 41974,
        "meta_bstar": 0.00015193679,
        "meta_mean_motion_dot": 2.75e-06,
        "meta_mean_motion_ddot": 0,
        "tle_line1": "1 43010U 17072A   25355.26605872  .00000275  00000+0  15194-3 0  9997",
        "tle_line2": "2 43010  98.9898 321.7040 0001362 155.6682 204.4558 14.19686636419746"
      },
      "geometry": {
        "type": "Point",
        "coordinates": [
          -31.781947093722923,
          -34.145523434292045
        ]
      }
    },
    {
      "type": "Feature",
      "properties": {
        "norad_id": 43013,
        "name": "NOAA 20 (JPSS-1)",
        "group": "weather",
        "lat": 65.81384711547139,
        "lon": 131.8933005414503,
        "alt_km": 819.3021952084591,
        "timestamp": "2025-12-21T14:40:47.553256+00:00",
        "meta_object_name": "NOAA 20 (JPSS-1)",
        "meta_object_id": "2017-073A",
        "meta_epoch": "2025-12-21T04:00:05.831424",
        "meta_mean_motion": 14.19527818,
        "meta_eccentricity": 0.0002126,
        "meta_inclination": 98.7611,
        "meta_ra_of_asc_node": 291.3717,
        "meta_arg_of_pericenter": 75.1777,
        "meta_mean_anomaly": 284.9634,
        "meta_ephemeris_type": 0,
        "meta_classification_type": "U",
        "meta_norad_cat_id": 43013,
        "meta_element_set_no": 999,
        "meta_rev_at_epoch": 41921,
        "meta_bstar": 5.1773263e-05,
        "meta_mean_motion_dot": 6.5e-07,
        "meta_mean_motion_ddot": 0,
        "tle_line1": "1 43013U 17073A   25355.16673416  .00000065  00000+0  51773-4 0  9990",
        "tle_line2": "2 43013  98.7611 291.3717 0002126  75.1777 284.9634 14.19527818419219"
      },
      "geometry": {
        "type": "Point",
        "coordinates": [
          131.8933005414503,
          65.81384711547139
        ]
      }
    },
    {
      "type": "Feature",
      "properties": {
        "norad_id": 43226,
        "name": "GOES 17",
        "group": "weather",
        "lat": 0.33908896049485154,
        "lon": -138.92012141919952,
        "alt_km": 35779.79005744958,
        "timestamp": "2025-12-21T14:40:47.553268+00:00",
        "meta_object_name": "GOES 17",
        "meta_object_id": "2018-022A",
        "meta_epoch": "2025-12-21T04:12:45.785952",
        "meta_mean_motion": 1.00270516,
        "meta_eccentricity": 0.00030989,
        "meta_inclination": 0.4781,
        "meta_ra_of_asc_node": 89.1352,
        "meta_arg_of_pericenter": 191.7232,
        "meta_mean_anomaly": 142.8234,
        "meta_ephemeris_type": 0,
        "meta_classification_type": "U",
        "meta_norad_cat_id": 43226,
        "meta_element_set_no": 999,
        "meta_rev_at_epoch": 2863,
        "meta_bstar": 0,
        "meta_mean_motion_dot": -1.6e-06,
        "meta_mean_motion_ddot": 0,
        "tle_line1": "1 43226U 18022A   25355.17552993 -.00000160  00000+0  00000+0 0  9997",
        "tle_line2": "2 43226   0.4781  89.1352 0003098 191.7232 142.8234  1.00270516 28637"
      },
      "geometry": {
        "type": "Point",
        "coordinates": [
          -138.92012141919952,
          0.33908896049485154
        ]
      }
    },
    {
      "type": "Feature",
      "properties": {
        "norad_id": 43491,
        "name": "FENGYUN 2H",
        "group": "weather",
        "lat": -1.9956723127453733,
        "lon": 30.015869382437945,
        "alt_km": 35794.48772681096,
        "timestamp": "2025-12-21T14:40:47.553289+00:00",
        "meta_object_name": "FENGYUN 2H",
        "meta_object_id": "2018-050A",
        "meta_epoch": "2025-12-21T01:35:30.848928",
        "meta_mean_motion": 1.00271172,
        "meta_eccentricity": 0.00023647,
        "meta_inclination": 2.5713,
        "meta_ra_of_asc_node": 81.2426,
        "meta_arg_of_pericenter": 165.815,
        "meta_mean_anomaly": 306.0626,
        "meta_ephemeris_type": 0,
        "meta_classification_type": "U",
        "meta_norad_cat_id": 43491,
        "meta_element_set_no": 999,
        "meta_rev_at_epoch": 2765,
        "meta_bstar": 0,
        "meta_mean_motion_dot": -1.09e-06,
        "meta_mean_motion_ddot": 0,
        "tle_line1": "1 43491U 18050A   25355.06632927 -.00000109  00000+0  00000+0 0  9999",
        "tle_line2": "2 43491   2.5713  81.2426 0002364 165.8150 306.0626  1.00271172 27659"
      },
      "geometry": {
        "type": "Point",
        "coordinates": [
          30.015869382437945,
          -1.9956723127453733
        ]
      }
    },
    {
      "type": "Feature",
      "properties": {
        "norad_id": 43689,
        "name": "METOP-C",
        "group": "weather",
        "lat": -43.43986321095448,
        "lon": 61.573875366495955,
        "alt_km": 826.7118566634972,
        "timestamp": "2025-12-21T14:40:47.553302+00:00",
        "meta_object_name": "METOP-C",
        "meta_object_id": "2018-087A",
        "meta_epoch": "2025-12-21T04:45:03.046752",
        "meta_mean_motion": 14.21487374,
        "meta_eccentricity": 8.391e-05,
        "meta_inclination": 98.6917,
        "meta_ra_of_asc_node": 52.8375,
        "meta_arg_of_pericenter": 24.4579,
        "meta_mean_anomaly": 335.6638,
        "meta_ephemeris_type": 0,
        "meta_classification_type": "U",
        "meta_norad_cat_id": 43689,
        "meta_element_set_no": 999,
        "meta_rev_at_epoch": 36954,
        "meta_bstar": 6.6832487e-05,
        "meta_mean_motion_dot": 1.03e-06,
        "meta_mean_motion_ddot": 0,
        "tle_line1": "1 43689U 18087A   25355.19795193  .00000103  00000+0  66832-4 0  9990",
        "tle_line2": "2 43689  98.6917  52.8375 0000839  24.4579 335.6638 14.21487374369545"
      },
      "geometry": {
        "type": "Point",
        "coordinates": [
          61.573875366495955,
          -43.43986321095448
        ]
      }
    }
  ]
}